stk.v.9.0

# WrittenBy    STK_v9.2.1

BEGIN Ephemeris

NumberOfEphemerisPoints 91

ScenarioEpoch            19 May 2020 04:00:00.000

# Epoch in JDate format: 2458988.66666666666667
# Epoch in YYDDD format:   20140.16666666666667


InterpolationMethod     Lagrange

InterpolationSamplesM1      5

CentralBody             Earth

CoordinateSystem        ICRF 

# Time of first point: 19 May 2020 04:00:00.000000000 UTCG = 2458988.66666666666667 JDate = 20140.16666666666667 YYDDD

EphemerisTimePosVel

0.00000000000000e+000 -4.76396321469460e+006 7.56460204968315e+005 4.97307799437179e+006 1.67572534706206e+003 -6.90461240096613e+003 2.65553012406853e+003
6.00000000000000e+001 -4.65321719393735e+006 3.40849823621660e+005 5.12156943080458e+006 2.01448113779682e+003 -6.94408495116549e+003 2.29240441952435e+003
1.20000000000000e+002 -4.52239929440847e+006 -7.62308300234767e+004 5.24796872830400e+006 2.34454736612768e+003 -6.95360385305863e+003 1.91939031697798e+003
1.80000000000000e+002 -4.37207380548262e+006 -4.92982658274242e+005 5.35173065735025e+006 2.66450027531914e+003 -6.93312804639909e+003 1.53809683091004e+003
2.40000000000000e+002 -4.20288916347048e+006 -9.07607981842122e+005 5.43240763581378e+006 2.97295973292987e+003 -6.88274585457515e+003 1.15016868932478e+003
3.00000000000000e+002 -4.01557515455716e+006 -1.31831829422002e+006 5.48965165962259e+006 3.26859518408114e+003 -6.80267460362263e+003 7.57279239135840e+002
3.60000000000000e+002 -3.81093976683401e+006 -1.72334197649208e+006 5.52321580389473e+006 3.55013139087006e+003 -6.69325968477844e+003 3.61123228102932e+002
4.20000000000000e+002 -3.58986570500264e+006 -2.12093193929813e+006 5.53295528806080e+006 3.81635393317032e+003 -6.55497306461867e+003 -3.65905055451026e+001
4.80000000000000e+002 -3.35330658278530e+006 -2.50937315898857e+006 5.51882810038196e+006 4.06611444709244e+003 -6.38841124920782e+003 -4.34146404267132e+002
5.40000000000000e+002 -3.10228280946560e+006 -2.88699007546238e+006 5.48089517916964e+006 4.29833557850735e+003 -6.19429271104083e+003 -8.29829591350655e+002
6.00000000000000e+002 -2.83787718830351e+006 -3.25215381977714e+006 5.41932014992513e+006 4.51201563026581e+003 -5.97345478987708e+003 -1.22193326811594e+003
6.60000000000000e+002 -2.56123024581075e+006 -3.60328924035445e+006 5.33436861953306e+006 4.70623288306781e+003 -5.72685008083452e+003 -1.60876607627518e+003
7.20000000000000e+002 -2.27353531203421e+006 -3.93888169747290e+006 5.22640703055316e+006 4.88014957134360e+003 -5.45554232532434e+003 -1.98865939368875e+003
7.80000000000000e+002 -1.97603337306874e+006 -4.25748359674023e+006 5.09590108055244e+006 5.03301549699627e+003 -5.16070182255059e+003 -2.35997453204802e+003
8.40000000000000e+002 -1.67000771800324e+006 -4.55772063336213e+006 4.94341371329608e+006 5.16417126541771e+003 -4.84360038136768e+003 -2.72110980543707e+003
9.00000000000000e+002 -1.35677840339073e+006 -4.83829772027291e+006 4.76960269046212e+006 5.27305112981937e+003 -4.50560583427094e+003 -3.07050743928284e+003
9.60000000000000e+002 -1.03769655912017e+006 -5.09800457455649e+006 4.57521775435446e+006 5.35918543160852e+003 -4.14817613718462e+003 -3.40666028989155e+003
1.02000000000000e+003 -7.14138560251993e+005 -5.33572093806070e+006 4.36109739385293e+006 5.42220262628346e+003 -3.77285308049811e+003 -3.72811834558635e+003
1.08000000000000e+003 -3.87500089957249e+005 -5.55042140968531e+006 4.12816522755074e+006 5.46183088610883e+003 -3.38125563847804e+003 -4.03349498140323e+003
1.14000000000000e+003 -5.91901191703842e+004 -5.74117986849956e+006 3.87742601968071e+006 5.47789927265771e+003 -2.97507298574401e+003 -4.32147294036526e+003
1.20000000000000e+003 2.69375171075460e+005 -5.90717346860986e+006 3.60996134601588e+006 5.47033847416293e+003 -2.55605721093169e+003 -4.59081001553471e+003
1.26000000000000e+003 5.96778498414230e+005 -6.04768618854561e+006 3.32692492843979e+006 5.43918110449665e+003 -2.12601575897324e+003 -4.84034440833304e+003
1.32000000000000e+003 9.21607592663411e+005 -6.16211191985262e+006 3.02953765831098e+006 5.38456156248892e+003 -1.68680363459566e+003 -5.06899974001565e+003
1.38000000000000e+003 1.24246128772017e+006 -6.24995708157143e+006 2.71908233008875e+006 5.30671545219173e+003 -1.24031540066763e+003 -5.27578969468392e+003
1.44000000000000e+003 1.55795556555951e+006 -6.31084274932280e+006 2.39689810793681e+006 5.20597856658953e+003 -7.88477005910391e+002 -5.45982227380690e+003
1.50000000000000e+003 1.86672952626338e+006 -6.34450628981644e+006 2.06437474917351e+006 5.08278543913977e+003 -3.33237477224253e+002 -5.62030364390029e+003
1.56000000000000e+003 2.16745125832867e+006 -6.35080249373251e+006 1.72294660948603e+006 4.93766746939175e+003 1.23439487533798e+002 -5.75654156076587e+003
1.62000000000000e+003 2.45882358393228e+006 -6.32970420208908e+006 1.37408645576735e+006 4.77125063076881e+003 5.79583990056334e+002 -5.86794835552048e+003
1.68000000000000e+003 2.73958965437080e+006 -6.28130242339370e+006 1.01929911326457e+006 4.58425277040148e+003 1.03322842883769e+003 -5.95404346953437e+003
1.74000000000000e+003 3.00853837153852e+006 -6.20580594107380e+006 6.60114974442003e+005 4.37748051265895e+003 1.48241598651880e+003 -6.01445552734423e+003
1.80000000000000e+003 3.26450961205804e+006 -6.10354041287919e+006 2.98083397558817e+005 4.15182577973566e+003 1.92520907071406e+003 -6.04892393859929e+003
1.86000000000000e+003 3.50639923152892e+006 -5.97494696614155e+006 -6.52339765631966e+004 3.90826194430145e+003 2.35969767191039e+003 -6.05730002213054e+003
1.92000000000000e+003 3.73316382730827e+006 -5.82058029495019e+006 -4.28269960753297e+005 3.64783963081125e+003 2.78400760238616e+003 -6.03954764729410e+003
1.98000000000000e+003 3.94382523927880e+006 -5.64110626745211e+006 -7.89458581629914e+005 3.37168218358533e+003 3.19630858061119e+003 -5.99574338982260e+003
2.04000000000000e+003 4.13747476919009e+006 -5.43729905359735e+006 -1.14724183450300e+006 3.08098082120893e+003 3.59482212625509e+003 -5.92607620151196e+003
2.10000000000000e+003 4.31327710037271e+006 -5.21003778571927e+006 -1.50007640390310e+006 2.77698949815294e+003 3.97782923174879e+003 -5.83084659516867e+003
2.16000000000000e+003 4.47047390091733e+006 -4.96030276635441e+006 -1.84644032074768e+006 2.46101949578028e+003 4.34367777730723e+003 -5.71046534833314e+003
2.22000000000000e+003 4.60838709477627e+006 -4.68917123965985e+006 -2.18483952742886e+006 2.13443376606993e+003 4.69078965742854e+003 -5.56545173137086e+003
2.28000000000000e+003 4.72642178667755e+006 -4.39781274466806e+006 -2.51381432250356e+006 1.79864105245724e+003 5.01766758812885e+003 -5.39643126757431e+003
2.34000000000000e+003 4.82406882823461e+006 -4.08748407042345e+006 -2.83194565718672e+006 1.45508981315063e+003 5.32290156554959e+003 -5.20413303493789e+003
2.40000000000000e+003 4.90090701418259e+006 -3.75952383476165e+006 -3.13786125648729e+006 1.10526197313658e+003 5.60517494807779e+003 -4.98938652124450e+003
2.46000000000000e+003 4.95660489926780e+006 -3.41534671011631e+006 -3.43024153858314e+006 7.50666531824088e+002 5.86327013574370e+003 -4.75311804602958e+003
2.52000000000000e+003 4.99092222795289e+006 -3.05643732126077e+006 -3.70782530690148e+006 3.92833053902368e+002 6.09607382239753e+003 -4.49634676485680e+003
2.58000000000000e+003 5.00371097077086e+006 -2.68434384130685e+006 -3.96941519035164e+006 3.33050714890674e+001 6.30258179800966e+003 -4.22018027314087e+003
2.64000000000000e+003 4.99491596285731e+006 -2.30067131358480e+006 -4.21388280824352e+006 -3.26366573970584e+002 6.48190328037950e+003 -3.92580982848089e+003
2.70000000000000e+003 4.96457514190680e+006 -1.90707472821082e+006 -4.44017363761258e+006 -6.84630421333813e+002 6.63326475756782e+003 -3.61450521211270e+003
2.76000000000000e+003 4.91281938452676e+006 -1.50525188320662e+006 -4.64731156195601e+006 -1.03994108206344e+003 6.75601332447819e+003 -3.28760925164575e+003
2.82000000000000e+003 4.83987194169486e+006 -1.09693606096512e+006 -4.83440308175871e+006 -1.39076590633652e+003 6.84961949919481e+003 -2.94653202871088e+003
2.88000000000000e+003 4.74604747575507e+006 -6.83888551652450e+005 -5.00064116864695e+006 -1.73559159420392e+003 6.91367950692857e+003 -2.59274479650456e+003
2.94000000000000e+003 4.63175070310631e+006 -2.67891055797140e+005 -5.14530874654448e+006 -2.07293072328328e+003 6.94791702171923e+003 -2.22777363346668e+003
3.00000000000000e+003 4.49747464843859e+006 1.49262001161779e+005 -5.26778178481516e+006 -2.40132816482785e+003 6.95218435838087e+003 -1.85319286046694e+003
3.06000000000000e+003 4.34379851804702e+006 5.65771209216235e+005 -5.36753199004939e+006 -2.71936736049511e+003 6.92646310954920e+003 -1.47061824989518e+003
3.12000000000000e+003 4.17138520139726e+006 9.79839935631742e+005 -5.44412908488347e+006 -3.02567643274014e+003 6.87086422508252e+003 -1.08170005594851e+003
3.18000000000000e+003 3.98097841171957e+006 1.38968207481009e+006 -5.49724266402196e+006 -3.31893410247611e+003 6.78562753347418e+003 -6.88115896179629e+002
3.24000000000000e+003 3.77339947796561e+006 1.79352975274279e+006 -5.52664361945695e+006 -3.59787538847596e+003 6.67112070734069e+003 -2.91563515011811e+002
3.30000000000000e+003 3.54954380196603e+006 2.18964095282157e+006 -5.53220512873667e+006 -3.86129706393045e+003 6.52783767744799e+003 1.06246539564240e+002
3.36000000000000e+003 3.31037699607110e+006 2.57630703011182e+006 -5.51390320202021e+006 -4.10806284662553e+003 6.35639650211706e+003 5.03598294522379e+002
3.42000000000000e+003 3.05693071793487e+006 2.95186008167564e+006 -5.47181678555898e+006 -4.33710830035099e+003 6.15753670119927e+003 8.98777753734165e+002
3.48000000000000e+003 2.79029822040972e+006 3.31468014115232e+006 -5.40612742115813e+006 -4.54744542639781e+003 5.93211606612155e+003 1.29008029137455e+003
3.54000000000000e+003 2.51162963574688e+006 3.66320216656202e+006 -5.31711846308715e+006 -4.73816692533869e+003 5.68110695976132e+003 1.67581800490832e+003
END Ephemeris
